#aV2011  4 11  0  0   .00000000      96 DD+AD WGS84 FIT  NGA
## 1631  86400.00000000   900.00000000 55662  .0000000000000
+   32     1  2  3  4  5  6  7  8  9 10 11 12 13 14 15 16 17
+         18 19 20 21 22 23 24 25 26 27 28 29 30 31 32  0  0
+          0  0  0  0  0  0  0  0  0  0  0  0  0  0  0  0  0
+          0  0  0  0  0  0  0  0  0  0  0  0  0  0  0  0  0
+          0  0  0  0  0  0  0  0  0  0  0  0  0  0  0  0  0
++         0  0  0  0  0  0  0  0  0  0  0  0  0  0  0  0  0
++         0  0  0  0  0  0  0  0  0  0  0  0  0  0  0  0  0
++         0  0  0  0  0  0  0  0  0  0  0  0  0  0  0  0  0
++         0  0  0  0  0  0  0  0  0  0  0  0  0  0  0  0  0
++         0  0  0  0  0  0  0  0  0  0  0  0  0  0  0  0  0
%c cc cc ccc ccc cccc cccc cccc cccc ccccc ccccc ccccc ccccc
%c cc cc ccc ccc cccc cccc cccc cccc ccccc ccccc ccccc ccccc
%f  0.0000000  0.000000000  0.00000000000  0.000000000000000
%f  0.0000000  0.000000000  0.00000000000  0.000000000000000
%i    0    0    0    0      0      0      0      0         0
%i    0    0    0    0      0      0      0      0         0
/*      NGA, ST. LOUIS,MO.                                  
/*   EPHEMERIS COMPUTED FROM  3 DAYS OF DATA                
/* CCCCCCCCCCCCCCCCCCCCCCCCCCCCCCCCCCCCCCCCCCCCCCCCCCCCCCCCC
/* CCCCCCCCCCCCCCCCCCCCCCCCCCCCCCCCCCCCCCCCCCCCCCCCCCCCCCCCC
*  2011  4 11 23  0   .00000000                                                 
P  1  10935.247373 -11408.241578  21209.412913   -221.939267                    
V  1  11502.724310  24660.086630   7436.917243      -.025753                    
P  2  -9314.263204  14098.536777  20422.787459    330.284057                    
V  2 -25797.152034  -3792.213934  -9649.119952       .022052                    
P  3   8896.231572 -24317.988853  -5495.572286    700.717073                    
V  3   6636.353329  -3810.478419  30164.939890       .050684                    
P  4 -21817.691634   7335.676195  13339.462086     85.742150                    
V  4 -16794.038425  -4511.152216 -24258.825690       .103975                    
P  5  -1149.205843  22373.779558  14166.295527   -143.240063                    
V  5  -9412.775444 -15613.235765  23963.848229      -.058120                    
P  6  13636.340128 -22595.119090  -1449.684537   -328.586652                    
V  6   4309.023022    388.030704  31252.805007     -1.110606                    
P  7 -25730.040958  -5826.225277   3931.250929      7.908022                    
V  7   5178.552273  -1559.547445  31405.526775       .010110                    
P  8 -25975.958404   -707.419045  -6736.337572      7.708590                    
V  8  -8039.780795  -2790.036728  30661.073846       .000761                    
P  9  12127.990718  14149.535171 -19477.693821     73.250549                    
V  9 -23492.045442  -1282.019972 -16006.824656       .024124                    
P 10 -12605.283889   9268.397248  21209.537613    -71.349113                    
V 10 -11040.535080 -25220.278879   4780.612204      -.008954                    
P 11 -11615.108449 -14375.224591 -19485.268832   -141.921834                    
V 11  23870.295631  -4881.872238 -10448.540032      -.031154                    
P 12  11391.507891  24031.346365   1864.947419    -12.444498                    
V 12  -1161.949409   2996.284093 -31823.762825       .027910                    
P 13 -14884.397517  -4329.699752  21430.616657    275.485254                    
V 13  17694.729993 -21011.076484   7938.914325      -.014923                    
P 14  20284.513328 -12446.171840 -11493.405050    143.331517                    
V 14  -7988.349063  12667.788676 -27577.631994       .023209                    
P 15   1457.040407  19715.837958 -17651.926513   -136.002211                    
V 15 -14617.179495  17241.267383  18205.100944       .029094                    
P 16   3109.061336 -21056.333423  15722.005616   -164.453390                    
V 16   9063.972558  17920.529202  22543.126612      -.027540                    
P 17 -20160.890400  12107.093847 -11989.640019    184.348690                    
V 17   7579.985396 -13780.257192 -26582.572984       .002050                    
P 18  17700.330992   7719.737619 -18079.465731    131.361743                    
V 18   7372.927449  22435.234270  16146.003366       .019834                    
P 19   3443.913762 -20844.145519 -15878.707952   -129.488275                    
V 19  15041.412872 -13826.705708  21750.762641      -.038904                    
P 20 -14514.713123 -21681.804729   4996.248204     48.900757                    
V 20    358.023782  -7429.448295 -30237.353624       .000926                    
P 21  26243.563774   5366.388435   2846.818369   -136.827745                    
V 21  -3447.787630   2723.807519  30443.055990      -.026654                    
P 22  15007.478415  -4939.772928 -21186.342532    150.378220                    
V 22  10303.058837  25397.068002   1262.356681      -.004502                    
P 23  -6428.140319 -15261.390590  20684.556373    313.953330                    
V 23  16714.302072 -20389.290886 -10183.671809      -.025783                    
P 24 -15098.342043 -14500.049647 -16450.593012    380.867389                    
V 24  20949.512980   1578.766815 -20271.274273       .031065                    
P 25  17164.505890  15036.501660  13595.037411     -1.165401                    
V 25   5167.440118  16621.150450 -24858.469961      -.000663                    
P 26 -10347.905916  22259.383428 -10173.590744      -.032961              E     
V 26  -9404.020210   7946.192384  29019.419730      -.106424                    
P 27   6623.728817  14356.403290 -20742.598132    254.631528                    
V 27 -27735.908949  -1259.907476  -9133.934280       .036164                    
P 28 -15403.759040     52.654225 -21156.816021     30.830330                    
V 28  -9706.605780 -26277.494623   6587.993966       .024004                    
P 29  13060.605506   8008.191804  21776.008528    199.154061                    
V 29 -16969.074660  21584.887337   2289.392761       .027282                    
P 30   7839.816253 -15438.613051  19723.469716    336.228615                    
V 30  12486.752852  22793.298741  12649.970912       .027710                    
P 31  19795.501589  -8355.565346  15956.479496     65.292909                    
V 31  19448.565670   3749.911670 -22245.427181       .051425                    
P 32  -7552.260542 -25641.733168  -1413.620176   -233.231913                    
V 32   3184.239200   1163.244264 -31302.297118      -.074048                    
EOF
